{
  "norad_id": 60409,
  "name": "STARLINK-11174 [DTC]",
  "history": [
    {
      "epoch": "2026-04-15T16:23:08.411136Z",
      "apogee_km": 360.5570082135837,
      "perigee_km": 358.9237467372832,
      "latitude_deg": -4.059573978370518e-05,
      "longitude_deg": 174.22643205228024,
      "height_km": 360.70436022252267,
      "semi_major_axis_km": 6737.877377475434,
      "eccentricity": 0.0001212,
      "inclination_deg": 53.1601,
      "raan_deg": 263.8528,
      "arg_perigee_deg": 93.5425,
      "mean_anomaly_deg": 266.5731,
      "mean_motion_rev_day": 15.69705238
    },
    {
      "epoch": "2026-04-16T19:53:26.630016Z",
      "apogee_km": 360.510451086132,
      "perigee_km": 358.9230127468936,
      "latitude_deg": 1.2425363178492471e-05,
      "longitude_deg": 114.87206904537653,
      "height_km": 360.6416703537385,
      "semi_major_axis_km": 6737.8537319165125,
      "eccentricity": 0.0001178,
      "inclination_deg": 53.1596,
      "raan_deg": 258.2039,
      "arg_perigee_deg": 90.8251,
      "mean_anomaly_deg": 269.2902,
      "mean_motion_rev_day": 15.69713501
    },
    {
      "epoch": "2026-04-17T21:52:04.104768Z",
      "apogee_km": 360.34035356460026,
      "perigee_km": 359.0927725988595,
      "latitude_deg": -1.6406453585261814e-05,
      "longitude_deg": 78.80966352724478,
      "height_km": 360.79493400651324,
      "semi_major_axis_km": 6737.85356308173,
      "eccentricity": 9.258e-05,
      "inclination_deg": 53.1573,
      "raan_deg": 252.8645,
      "arg_perigee_deg": 105.3124,
      "mean_anomaly_deg": 254.7996,
      "mean_motion_rev_day": 15.6971356
    },
    {
      "epoch": "2026-04-18T02:27:07.203744Z",
      "apogee_km": 360.5008892591959,
      "perigee_km": 358.9166869574956,
      "latitude_deg": -6.061208345492287e-06,
      "longitude_deg": 8.91789277264153,
      "height_km": 360.5563837678724,
      "semi_major_axis_km": 6737.845788108345,
      "eccentricity": 0.00011756,
      "inclination_deg": 53.1577,
      "raan_deg": 251.9239,
      "arg_perigee_deg": 85.2408,
      "mean_anomaly_deg": 274.8744,
      "mean_motion_rev_day": 15.69716277
    },
    {
      "epoch": "2026-04-19T13:35:50.999136Z",
      "apogee_km": 360.50733438559564,
      "perigee_km": 358.9481924793372,
      "latitude_deg": -1.8880094043238368e-05,
      "longitude_deg": -166.92737264113742,
      "height_km": 360.42602834421876,
      "semi_major_axis_km": 6737.864763432466,
      "eccentricity": 0.0001157,
      "inclination_deg": 53.1599,
      "raan_deg": 244.7045,
      "arg_perigee_deg": 73.9622,
      "mean_anomaly_deg": 286.1523,
      "mean_motion_rev_day": 15.69709646
    },
    {
      "epoch": "2026-04-20T01:49:19.453440Z",
      "apogee_km": 360.36165426288517,
      "perigee_km": 359.12525319962606,
      "latitude_deg": -3.3048775370572794e-05,
      "longitude_deg": 6.690211212991758,
      "height_km": 360.76516068022676,
      "semi_major_axis_km": 6737.880453731255,
      "eccentricity": 9.175e-05,
      "inclination_deg": 53.1591,
      "raan_deg": 242.1927,
      "arg_perigee_deg": 100.0504,
      "mean_anomaly_deg": 260.0617,
      "mean_motion_rev_day": 15.69704163
    },
    {
      "epoch": "2026-04-21T14:29:44.160576Z",
      "apogee_km": 360.6712489795864,
      "perigee_km": 358.8627955400116,
      "latitude_deg": 5.291067889277781e-05,
      "longitude_deg": 167.55039687917835,
      "height_km": 360.9167950412891,
      "semi_major_axis_km": 6737.904022259799,
      "eccentricity": 0.0001342,
      "inclination_deg": 53.1589,
      "raan_deg": 234.6619,
      "arg_perigee_deg": 105.1632,
      "mean_anomaly_deg": 254.9535,
      "mean_motion_rev_day": 15.69695927
    },
    {
      "epoch": "2026-04-22T11:53:18.659040Z",
      "apogee_km": 360.5158503333423,
      "perigee_km": 358.9580538756163,
      "latitude_deg": -2.2857757385795822e-05,
      "longitude_deg": -158.61488126189522,
      "height_km": 360.66338524631357,
      "semi_major_axis_km": 6737.873952104479,
      "eccentricity": 0.0001156,
      "inclination_deg": 53.1571,
      "raan_deg": 230.269,
      "arg_perigee_deg": 90.9685,
      "mean_anomaly_deg": 269.1465,
      "mean_motion_rev_day": 15.69706435
    },
    {
      "epoch": "2026-04-23T13:51:56.024064Z",
      "apogee_km": 360.8945629479831,
      "perigee_km": 358.56838123667785,
      "latitude_deg": 1.0979112834707038e-05,
      "longitude_deg": 165.3258147312565,
      "height_km": 360.87299249510687,
      "semi_major_axis_km": 6737.86847209233,
      "eccentricity": 0.00017262,
      "inclination_deg": 53.159,
      "raan_deg": 224.9322,
      "arg_perigee_deg": 101.345,
      "mean_anomaly_deg": 258.7762,
      "mean_motion_rev_day": 15.6970835
    },
    {
      "epoch": "2026-04-24T12:47:11.048928Z",
      "apogee_km": 360.74861615912414,
      "perigee_km": 358.77710665967606,
      "latitude_deg": -1.06279839285327e-05,
      "longitude_deg": 175.86506834231997,
      "height_km": 360.3888224526423,
      "semi_major_axis_km": 6737.8998614094,
      "eccentricity": 0.0001463,
      "inclination_deg": 53.1567,
      "raan_deg": 220.2254,
      "arg_perigee_deg": 73.0776,
      "mean_anomaly_deg": 287.0402,
      "mean_motion_rev_day": 15.69697381
    },
    {
      "epoch": "2026-04-25T17:49:10.488000Z",
      "apogee_km": 360.51874548015803,
      "perigee_km": 358.87740885536004,
      "latitude_deg": -3.289415734210671e-05,
      "longitude_deg": 93.21233825638221,
      "height_km": 360.6062749091443,
      "semi_major_axis_km": 6737.835077167759,
      "eccentricity": 0.0001218,
      "inclination_deg": 53.1573,
      "raan_deg": 214.2627,
      "arg_perigee_deg": 89.6499,
      "mean_anomaly_deg": 270.4658,
      "mean_motion_rev_day": 15.6972002
    },
    {
      "epoch": "2026-04-26T12:09:23.395392Z",
      "apogee_km": 360.68896073523956,
      "perigee_km": 358.76732159697985,
      "latitude_deg": -4.7986830548682825e-05,
      "longitude_deg": 173.63907598599823,
      "height_km": 360.4702083821727,
      "semi_major_axis_km": 6737.865141166109,
      "eccentricity": 0.0001426,
      "inclination_deg": 53.1578,
      "raan_deg": 210.4963,
      "arg_perigee_deg": 79.7515,
      "mean_anomaly_deg": 280.3663,
      "mean_motion_rev_day": 15.69709514
    },
    {
      "epoch": "2026-04-27T12:36:19.960128Z",
      "apogee_km": 360.3842006397708,
      "perigee_km": 359.2144948897976,
      "latitude_deg": 3.5498277504065406e-05,
      "longitude_deg": 160.87586586002195,
      "height_km": 360.18324190252054,
      "semi_major_axis_km": 6737.936347764784,
      "eccentricity": 8.68e-05,
      "inclination_deg": 53.1585,
      "raan_deg": 205.4728,
      "arg_perigee_deg": 24.8859,
      "mean_anomaly_deg": 335.2201,
      "mean_motion_rev_day": 15.69684631
    },
    {
      "epoch": "2026-04-28T05:24:51.332832Z",
      "apogee_km": 360.62388466616903,
      "perigee_km": 358.81153650611486,
      "latitude_deg": 2.4536312180063342e-05,
      "longitude_deg": -95.39707073765067,
      "height_km": 360.307101239524,
      "semi_major_axis_km": 6737.854710586142,
      "eccentricity": 0.00013449,
      "inclination_deg": 53.158,
      "raan_deg": 202.0209,
      "arg_perigee_deg": 69.0611,
      "mean_anomaly_deg": 291.0551,
      "mean_motion_rev_day": 15.69713159
    },
    {
      "epoch": "2026-04-29T11:58:31.921248Z",
      "apogee_km": 360.40559426728123,
      "perigee_km": 359.0403690777939,
      "latitude_deg": 5.372009419373863e-06,
      "longitude_deg": 158.65129031234193,
      "height_km": 360.64550508010996,
      "semi_major_axis_km": 6737.859981672537,
      "eccentricity": 0.00010131,
      "inclination_deg": 53.1582,
      "raan_deg": 195.7435,
      "arg_perigee_deg": 90.7509,
      "mean_anomaly_deg": 269.3625,
      "mean_motion_rev_day": 15.69711317
    },
    {
      "epoch": "2026-04-30T10:53:47.247648Z",
      "apogee_km": 360.37492789081807,
      "perigee_km": 359.05296153546624,
      "latitude_deg": 1.3435984323113658e-05,
      "longitude_deg": 169.18680733545105,
      "height_km": 360.4666423836466,
      "semi_major_axis_km": 6737.850944713142,
      "eccentricity": 9.81e-05,
      "inclination_deg": 53.1578,
      "raan_deg": 191.0342,
      "arg_perigee_deg": 75.9093,
      "mean_anomaly_deg": 284.2034,
      "mean_motion_rev_day": 15.69714475
    },
    {
      "epoch": "2026-05-02T10:15:59.493024Z",
      "apogee_km": 360.60433838573863,
      "perigee_km": 358.915821377519,
      "latitude_deg": 4.7347091453360895e-05,
      "longitude_deg": 166.96438807430994,
      "height_km": 360.6623874082597,
      "semi_major_axis_km": 6737.897079881628,
      "eccentricity": 0.0001253,
      "inclination_deg": 53.1583,
      "raan_deg": 181.3082,
      "arg_perigee_deg": 89.2571,
      "mean_anomaly_deg": 270.8591,
      "mean_motion_rev_day": 15.69698353
    }
  ]
}